{"fetched_at":"2026-07-09T07:59:53.441Z","source":"https://celestrak.org/NORAD/elements/gp.php?NAME=ASTROCAST&FORMAT=JSON","constellation":"astrocast","records":[{"OBJECT_NAME":"ASTROCAST 0.1","OBJECT_ID":"2018-099AS","EPOCH":"2026-07-08T18:07:43.087584","CLASSIFICATION_TYPE":"U","MEAN_MOTION":15.51109059,"ECCENTRICITY":0.00056344,"INCLINATION":97.4369,"RA_OF_ASC_NODE":268.9463,"ARG_OF_PERICENTER":145.5224,"MEAN_ANOMALY":214.6394,"EPHEMERIS_TYPE":0,"NORAD_CAT_ID":43798,"ELEMENT_SET_NO":999,"REV_AT_EPOCH":41777,"BSTAR":0.00053622922,"MEAN_MOTION_DOT":0.0003125,"MEAN_MOTION_DDOT":0},{"OBJECT_NAME":"ASTROCAST-0402","OBJECT_ID":"2023-001DE","EPOCH":"2026-07-08T18:34:50.851488","CLASSIFICATION_TYPE":"U","MEAN_MOTION":15.28925204,"ECCENTRICITY":0.00060134,"INCLINATION":97.5575,"RA_OF_ASC_NODE":283.3005,"ARG_OF_PERICENTER":152.0844,"MEAN_ANOMALY":208.072,"EPHEMERIS_TYPE":0,"NORAD_CAT_ID":55109,"ELEMENT_SET_NO":999,"REV_AT_EPOCH":14783,"BSTAR":0.00023970046,"MEAN_MOTION_DOT":0.0000666,"MEAN_MOTION_DDOT":0},{"OBJECT_NAME":"ASTROCAST-0401","OBJECT_ID":"2023-001DF","EPOCH":"2026-07-08T17:20:00.772224","CLASSIFICATION_TYPE":"U","MEAN_MOTION":15.28412847,"ECCENTRICITY":0.00094537,"INCLINATION":97.5559,"RA_OF_ASC_NODE":283.0596,"ARG_OF_PERICENTER":127.1051,"MEAN_ANOMALY":233.1054,"EPHEMERIS_TYPE":0,"NORAD_CAT_ID":55110,"ELEMENT_SET_NO":999,"REV_AT_EPOCH":19449,"BSTAR":0.00035307559,"MEAN_MOTION_DOT":0.00009705,"MEAN_MOTION_DDOT":0},{"OBJECT_NAME":"ASTROCAST-0403","OBJECT_ID":"2023-001DG","EPOCH":"2026-07-08T19:41:01.608000","CLASSIFICATION_TYPE":"U","MEAN_MOTION":15.32157588,"ECCENTRICITY":0.00042341,"INCLINATION":97.5615,"RA_OF_ASC_NODE":284.4373,"ARG_OF_PERICENTER":237.2504,"MEAN_ANOMALY":122.8329,"EPHEMERIS_TYPE":0,"NORAD_CAT_ID":55111,"ELEMENT_SET_NO":999,"REV_AT_EPOCH":14787,"BSTAR":0.00048846992,"MEAN_MOTION_DOT":0.00015103,"MEAN_MOTION_DDOT":0},{"OBJECT_NAME":"ASTROCAST-0404","OBJECT_ID":"2023-001DH","EPOCH":"2026-07-08T19:22:14.671200","CLASSIFICATION_TYPE":"U","MEAN_MOTION":15.28759073,"ECCENTRICITY":0.00048254,"INCLINATION":97.5663,"RA_OF_ASC_NODE":284.2613,"ARG_OF_PERICENTER":272.6154,"MEAN_ANOMALY":87.4533,"EPHEMERIS_TYPE":0,"NORAD_CAT_ID":55112,"ELEMENT_SET_NO":999,"REV_AT_EPOCH":14783,"BSTAR":0.00019595066,"MEAN_MOTION_DOT":0.00005401,"MEAN_MOTION_DDOT":0}]}
