ASTROCAST 0.1           
1 43798U 18099AS  26189.75535981  .00031250  00000+0  53623-3 0  9999
2 43798  97.4369 268.9463 0005634 145.5224 214.6394 15.51109059417771
ASTROCAST-0402          
1 55109U 23001DE  26189.77419967  .00006660  00000+0  23970-3 0  9993
2 55109  97.5575 283.3005 0006013 152.0844 208.0720 15.28925204147835
ASTROCAST-0401          
1 55110U 23001DF  26189.72223116  .00009705  00000+0  35308-3 0  9990
2 55110  97.5559 283.0596 0009453 127.1051 233.1054 15.28412847194492
ASTROCAST-0403          
1 55111U 23001DG  26189.82015750  .00015103  00000+0  48847-3 0  9996
2 55111  97.5615 284.4373 0004234 237.2504 122.8329 15.32157588147874
ASTROCAST-0404          
1 55112U 23001DH  26189.80711425  .00005401  00000+0  19595-3 0  9995
2 55112  97.5663 284.2613 0004825 272.6154  87.4533 15.28759073147834
